366P/Spacewatch,e,8.8570,70.7239,153.0377,3.497928,0.1506565,0.34821679,293.8524,11/19.0/2023,2000,g 15.0,4.0
# From MPC112395
367P/Catalina,e,8.4597,58.6611,172.7673,3.509315,0.1499238,0.27976155,297.0552,11/19.0/2023,2000,g 17.5,2.0
# From MPC114610
368P/NEAT,e,15.4799,257.8819,118.9233,5.531494,0.0757601,0.62656330,143.1813,11/19.0/2023,2000,g 14.0,4.0
# From MPC114610
369P/Hill,e,10.3232,47.2989,13.1722,4.380348,0.1075081,0.55580672,199.7709,11/19.0/2023,2000,g 15.0,4.0
# From MPEC 2021-F20
370P/NEAT,e,19.4232,55.0821,356.7207,6.436165,0.0603620,0.61555668,119.8821,11/19.0/2023,2000,g 13.0,4.0
# From MPC114610
371P/LINEAR-Skiff,e,17.3837,67.2860,308.5490,4.180450,0.1153107,0.47705706,215.4965,11/19.0/2023,2000,g 16.0,4.0
# From MPEC 2020-K19
372P/McNaught,e,9.5083,27.5490,326.0068,4.509793,0.1029128,0.15206512,190.5231,11/19.0/2023,2000,g 13.5,4.0
# From MPEC 2021-F20
373P/Rinner,e,13.7705,231.9475,221.0344,3.799436,0.1330839,0.39339937,224.1167,11/19.0/2023,2000,g 14.5,4.0
# From MPC114610
374P/Larson,e,10.7674,7.9151,51.4741,4.971049,0.0889267,0.46371285,157.4863,11/19.0/2023,2000,g 14.0,4.0
# From MPEC 2021-F20
375P/Hill,e,17.3637,359.9172,119.3654,5.547739,0.0754276,0.65949119,135.2724,11/19.0/2023,2000,g 16.0,4.0
# From MPEC 2022-K19
376P/LONEOS,e,1.1667,312.9824,285.3606,5.758900,0.0713173,0.51452844,108.6618,11/19.0/2023,2000,g 12.5,4.0
# From MPEC 2022-N37
377P/Scotti,e,9.0241,226.0555,354.9276,6.699584,0.0568372,0.25109281,69.7261,11/19.0/2023,2000,g  9.5,4.0
# From MPEC 2023-W26
378P/McNaught,e,19.1065,93.9055,193.4784,6.304200,0.0622672,0.46614249,70.4560,11/19.0/2023,2000,g 12.0,4.0
# From MPC115889
379P/Spacewatch,e,12.4574,30.5933,183.9670,3.496568,0.1507444,0.34816211,235.3839,11/19.0/2023,2000,g 15.0,4.0
# From MPEC 2023-C45
380P/PANSTARRS,e,8.0145,128.8610,87.6318,4.414204,0.1062736,0.34058792,176.5827,11/19.0/2023,2000,g 12.5,4.0
# From MPEC 2021-J28
381P/LINEAR-Spacewatch,e,28.3695,173.2786,173.8350,7.141512,0.0516439,0.68143763,78.1962,11/19.0/2023,2000,g 17.5,2.0
# From MPEC 2022-Y15
382P/Larson,e,8.3248,172.8716,163.1896,6.015430,0.0668043,0.27577835,47.7176,11/19.0/2023,2000,g  8.0,4.0
# From MPEC 2022-OB6
383P/Christensen,e,12.3218,207.8488,133.7634,3.547612,0.1475027,0.59903134,218.9615,11/19.0/2023,2000,g 18.0,4.0
# From MPEC 2022-OB6
384P/Kowalski,e,7.2831,354.2077,37.6885,2.898908,0.1996882,0.61631036,299.0691,11/19.0/2023,2000,g 19.5,4.0
# From MPEC 2021-F20
385P/Hill,e,16.8313,357.0776,44.3676,4.288604,0.1109763,0.40216729,169.1853,11/19.0/2023,2000,g 13.0,4.0
# From MPEC 2021-L04
386P/PANSTARRS,e,15.2368,134.9224,353.0822,4.051158,0.1208747,0.41680723,143.4422,11/19.0/2023,2000,g 14.5,4.0
# From MPEC 2021-J28
387P/Boattini,e,8.9326,259.2526,162.8071,4.796952,0.0938115,0.73704829,143.8400,11/19.0/2023,2000,g 15.0,4.0
# From MPEC 2021-S45
388P/Gibbs,e,23.8922,37.0340,42.3081,5.240603,0.0821547,0.61912111,129.6313,11/19.0/2023,2000,g 13.0,4.0
# From MPEC 2022-OB6
389P/Siding Spring,e,160.0874,218.8863,249.3982,5.633484,0.0737121,0.70480710,104.6523,11/19.0/2023,2000,g 16.0,4.0
# From MPEC 2022-OB6
390P/Gibbs,e,18.5546,152.3020,232.4009,5.813337,0.0703179,0.70734368,93.9535,11/19.0/2023,2000,g 12.0,4.0
# From MPEC 2021-F20
391P/Kowalski,e,21.2644,124.7937,187.2595,4.686967,0.0971329,0.11909444,201.0052,11/19.0/2023,2000,g  8.0,4.0
# From MPEC 2021-J28
392P/LINEAR,e,4.9325,24.8608,71.8814,6.140387,0.0647755,0.68358413,85.9146,11/19.0/2023,2000,g 14.5,4.0
# From MPEC 2023-T65
393P/Spacewatch-Hill,e,16.7877,36.3899,329.0857,4.795602,0.0938511,0.12015956,138.8395,11/19.0/2023,2000,g 11.0,4.0
# From MPEC 2020-KB7
394P/PANSTARRS,e,8.5299,98.1273,54.4089,4.329054,0.1094245,0.36761854,158.7351,11/19.0/2023,2000,g 16.0,2.4
# From MPEC 2023-VM5
395P/Catalina-NEAT,e,3.5571,221.0588,98.0788,7.105492,0.0520371,0.41562191,33.6510,11/19.0/2023,2000,g 10.0,4.0
# From MPEC 2020-KB7
396P/,e,5.4384,136.6341,8.3332,6.801932,0.0555592,0.41614509,85.8101,11/19.0/2023,2000,g 12.0,4.0
# From MPEC 2022-OB6
397P/Lemmon,e,10.9276,8.2277,14.5382,3.830839,0.1314508,0.40517800,163.9003,11/19.0/2023,2000,g 12.0,4.0
# From MPEC 2021-L04
398P/Boattini,e,11.0199,320.1623,127.4815,3.125880,0.1783387,0.58343338,188.4451,11/19.0/2023,2000,g 15.5,4.0
# From MPEC 2022-M88
399P/PANSTARRS,e,13.3226,207.1525,214.3550,3.792674,0.1334399,0.44743118,121.4185,11/19.0/2023,2000,g 14.0,4.0
# From MPEC 2022-ED3
400P/PANSTARRS,e,10.9307,176.4110,238.8347,3.561819,0.1466211,0.40971355,148.2691,11/19.0/2023,2000,g 15.5,2.8
# From MPEC 2022-K19
401P/McNaught,e,12.8021,359.8965,309.4373,5.777964,0.0709646,0.57899356,102.4782,11/19.0/2023,2000,g 12.5,4.0
# From MPEC 2023-M14
402P/LINEAR,e,30.8360,123.0791,326.8152,7.031083,0.0528653,0.43983182,37.2086,11/19.0/2023,2000,g 11.2,4.0
# From MPEC 2021-J28
403P/Catalina,e,12.3262,277.5902,163.8683,5.429659,0.0779014,0.50419316,90.2084,11/19.0/2023,2000,g 12.0,4.0
# From MPEC 2023-W26
404P/Bressi,e,9.7947,260.0381,169.3858,4.735193,0.0956528,0.12725732,1.4091,11/19.0/2023,2000,g 10.0,4.0
# From MPEC 2021-L04
405P/Lemmon,e,9.3727,112.1902,3.2948,3.605163,0.1439848,0.68966905,152.5421,11/19.0/2023,2000,g 17.5,4.0
# From MPEC 2021-F20
406P/Gibbs,e,1.2117,352.4207,11.5284,3.577873,0.1456353,0.54174625,168.7944,11/19.0/2023,2000,g 17.0,4.0
# From MPEC 2022-YN2
407P/PANSTARRS-Fuls,e,4.8750,80.2724,93.5442,3.482506,0.1516583,0.37772775,211.4309,11/19.0/2023,2000,g 14.0,4.0
# From MPEC 2023-W26
408P/Novichonok-Gerke,e,19.3568,189.4419,226.5450,4.742760,0.0954239,0.26873042,39.0735,11/19.0/2023,2000,g 11.0,4.0
# From MPEC 2022-ED3
409P/LONEOS-Hill,e,17.1287,143.6536,15.0660,6.035134,0.0664773,0.70973480,68.1390,11/19.0/2023,2000,g 14.0,4.0
# From MPEC 2022-M21
410P/NEAT-LINEAR,e,9.3898,139.9821,313.1221,6.645651,0.0575304,0.51150955,50.5107,11/19.0/2023,2000,g 12.5,4.0
# From MPEC 2021-J28
411P/Christensen,e,12.3874,77.6521,46.5645,5.811526,0.0703508,0.58120301,72.3510,11/19.0/2023,2000,g 13.5,4.0
# From MPEC 2021-F20
412P/WISE,e,8.9311,0.8456,155.9123,3.110416,0.1796703,0.47893658,193.9810,11/19.0/2023,2000,g 17.0,4.0
# From MPEC 2022-OB6
413P/Larson,e,15.9861,39.2202,186.4900,3.728679,0.1368900,0.42091774,116.6429,11/19.0/2023,2000,g 14.0,4.0
# From MPEC 2021-BE3
414P/STEREO,e,23.4048,257.8139,210.6856,2.793040,0.2111486,0.81199888,216.9660,11/19.0/2023,2000,g 19.0,4.0
# From MPEC 2022-J42
415P/Tenagra,e,31.7942,160.2772,345.9121,4.110475,0.1182677,0.19491708,119.2740,11/19.0/2023,2000,g 12.0,4.0
# From MPEC 2021-L04
416P/Scotti,e,3.3615,355.7802,134.4027,4.008373,0.1228152,0.45476300,123.6124,11/19.0/2023,2000,g 15.5,4.0
# From MPEC 2021-W31
417P/NEOWISE,e,8.1381,127.3915,112.6229,3.323240,0.1626902,0.56447284,152.2930,11/19.0/2023,2000,g 16.5,4.0
# From MPEC 2022-TA0
418P/LINEAR,e,5.7802,277.6790,307.3446,5.095514,0.0856884,0.66402179,65.3702,11/19.0/2023,2000,g 13.0,4.0
# From MPEC 2023-UR6
419P/PANSTARRS,e,2.8024,40.3986,187.7964,3.525229,0.1489097,0.27674799,111.9940,11/19.0/2023,2000,g 12.5,4.0
# From MPEC 2023-VM5
420P/Hill,e,14.4872,173.8565,156.6456,5.513412,0.0761331,0.49577119,41.6751,11/19.0/2023,2000,g 11.5,4.0
# From MPEC 2021-W31
421P/McNaught,e,10.0758,55.3316,259.8989,5.076586,0.0861681,0.67487407,88.5584,11/19.0/2023,2000,g 14.0,4.0
# From MPEC 2022-X67
422P/Christensen,e,39.5850,36.0278,304.8855,6.287438,0.0625163,0.50667506,42.2423,11/19.0/2023,2000,g 11.0,4.0
# From MPEC 2023-FK0
423P/Lemmon,e,8.3462,33.2958,80.4304,6.174234,0.0642435,0.12221374,50.7327,11/19.0/2023,2000,g  8.0,4.0
# From MPEC 2022-CN4
424P/LaSagra,e,8.6831,51.1915,312.5358,4.418584,0.1061156,0.69110174,79.4178,11/19.0/2023,2000,g 17.0,4.0
# From MPEC 2023-BF4
425P/Kowalski,e,16.4211,210.0732,200.8753,6.343499,0.0616894,0.54403914,48.6762,11/19.0/2023,2000,g 12.0,4.0
# From MPEC 2023-W26
426P/PANSTARRS,e,17.7714,280.4110,118.7334,3.190091,0.1729814,0.16186192,11.7742,11/19.0/2023,2000,g 13.5,4.0
# From MPEC 2023-J29
428P/Gibbs,e,8.5078,299.3345,36.8935,3.486696,0.1513850,0.51892844,139.0636,11/19.0/2023,2000,g 15.0,4.0
# From MPEC 2022-H04
429P/LINEAR-Hill,e,7.5188,322.1001,75.5937,3.553830,0.1471157,0.49138983,100.8753,11/19.0/2023,2000,g 15.5,4.0
# From MPEC 2022-L66
430P/Scotti,e,4.4753,54.6734,94.4284,3.104550,0.1801798,0.49970527,129.1585,11/19.0/2023,2000,g 16.5,4.0
# From MPEC 2023-D72
431P/Scotti,e,22.3924,202.8422,199.9401,3.475207,0.1521364,0.47778826,97.8936,11/19.0/2023,2000,g 14.0,4.0
# From MPEC 2021-U31
432P/PANSTARRS,e,10.0682,239.1319,105.3173,3.036502,0.1862703,0.24151591,151.0232,11/19.0/2023,2000,g 17.0,4.0
# From MPEC 2022-OB6
434P/Tenagra,e,6.3369,289.0130,128.1860,4.132631,0.1173179,0.27474493,88.3765,11/19.0/2023,2000,g 13.0,4.0
# From MPEC 2021-W31
435P/PANSTARRS,e,18.8759,98.5404,244.2378,3.019921,0.1878065,0.31821136,158.6370,11/19.0/2023,2000,g 17.0,4.0
# From MPEC 2022-X67
436P/Garradd,e,20.2027,87.1742,282.6831,5.933921,0.0681854,0.66971758,48.4457,11/19.0/2023,2000,g 14.5,4.0
# From MPEC 2023-B57
437P/Lemmon-PANSTARRS,e,3.6888,245.8482,206.8420,4.564162,0.1010794,0.25491602,46.1837,11/19.0/2023,2000,g 13.0,4.0
# From MPEC 2021-W47
438P/Christensen,e,8.2817,260.1234,59.0396,3.850051,0.1304681,0.41483449,172.6711,11/19.0/2023,2000,g 14.5,4.0
# From MPEC 2022-C56
439P/LINEAR,e,7.1136,56.4341,342.0614,3.490346,0.1511476,0.46958810,123.1300,11/19.0/2023,2000,g 13.5,4.0
# From MPEC 2022-WQ9
440P/Kobayashi,e,12.3404,328.8560,183.2870,8.577265,0.0392357,0.76045558,23.5053,11/19.0/2023,2000,g 15.5,4.0
# From MPEC 2022-X67
441P/PANSTARRS,e,2.5744,143.6081,178.8468,4.134002,0.1172595,0.19517071,282.5858,11/19.0/2023,2000,g 13.5,4.0
# From MPEC 2023-J29
442P/McNaught,e,6.0583,32.0100,310.7902,4.967241,0.0890290,0.53291514,40.7236,11/19.0/2023,2000,g 13.5,4.0
# From MPEC 2023-SQ0
443P/PANSTARRS-Christensen,e,19.8885,108.9436,145.1108,4.125874,0.1176062,0.28345549,47.6181,11/19.0/2023,2000,g 13.5,4.0
# From MPEC 2023-VM5
444P/WISE-PANSTARRS,e,22.1726,89.1564,171.2807,3.435762,0.1547638,0.57070435,76.8052,11/19.0/2023,2000,g 17.0,4.0
# From MPEC 2022-YB4
